[
  {
    "OBJECT_NAME": "STARLINK-6350",
    "OBJECT_ID": "23094J",
    "EPOCH": "2025-11-11T01:19:49.327392",
    "MEAN_MOTION": 15.02567482,
    "ECCENTRICITY": 0.0001274,
    "INCLINATION": 43.0041,
    "RA_OF_ASC_NODE": 315.01,
    "ARG_OF_PERICENTER": 273.1898,
    "MEAN_ANOMALY": 86.8798,
    "EPHEMERIS_TYPE": 0,
    "CLASSIFICATION_TYPE": "U",
    "NORAD_CAT_ID": 57226,
    "ELEMENT_SET_NO": 999,
    "REV_AT_EPOCH": 12927,
    "BSTAR": 0.0,
    "MEAN_MOTION_DOT": -3.939e-05,
    "MEAN_MOTION_DDOT": 0.0,
    "TLE_LINE1": "1 57226U 23094J   25315.05543203 -.00003939  00000+0 -27648-3 0  9993",
    "TLE_LINE2": "2 57226  43.0041 315.0100 0001274 273.1898  86.8798 15.02567482129275",
    "COMMENT": "Grouped by shell and plane from TLE"
  },
  {
    "OBJECT_NAME": "STARLINK-5996",
    "OBJECT_ID": "23094K",
    "EPOCH": "2025-11-11T01:26:13.619904",
    "MEAN_MOTION": 15.02539865,
    "ECCENTRICITY": 0.0001333,
    "INCLINATION": 43.0049,
    "RA_OF_ASC_NODE": 315.0445,
    "ARG_OF_PERICENTER": 265.1649,
    "MEAN_ANOMALY": 94.9041,
    "EPHEMERIS_TYPE": 0,
    "CLASSIFICATION_TYPE": "U",
    "NORAD_CAT_ID": 57227,
    "ELEMENT_SET_NO": 999,
    "REV_AT_EPOCH": 12927,
    "BSTAR": 5.4157000000000003e-05,
    "MEAN_MOTION_DOT": 5.28e-06,
    "MEAN_MOTION_DDOT": 0.0,
    "TLE_LINE1": "1 57227U 23094K   25315.05987986  .00000528  00000+0  54157-4 0  9999",
    "TLE_LINE2": "2 57227  43.0049 315.0445 0001333 265.1649  94.9041 15.02539865129272",
    "COMMENT": "Grouped by shell and plane from TLE"
  },
  {
    "OBJECT_NAME": "STARLINK-6230",
    "OBJECT_ID": "23094L",
    "EPOCH": "2025-11-11T01:15:02.227104",
    "MEAN_MOTION": 15.02539202,
    "ECCENTRICITY": 0.0001295,
    "INCLINATION": 43.0049,
    "RA_OF_ASC_NODE": 314.9844,
    "ARG_OF_PERICENTER": 273.1752,
    "MEAN_ANOMALY": 86.8942,
    "EPHEMERIS_TYPE": 0,
    "CLASSIFICATION_TYPE": "U",
    "NORAD_CAT_ID": 57228,
    "ELEMENT_SET_NO": 999,
    "REV_AT_EPOCH": 12927,
    "BSTAR": 4.5225e-05,
    "MEAN_MOTION_DOT": 4.07e-06,
    "MEAN_MOTION_DDOT": 0.0,
    "TLE_LINE1": "1 57228U 23094L   25315.05210911  .00000407  00000+0  45225-4 0  9999",
    "TLE_LINE2": "2 57228  43.0049 314.9844 0001295 273.1752  86.8942 15.02539202129270",
    "COMMENT": "Grouped by shell and plane from TLE"
  },
  {
    "OBJECT_NAME": "STARLINK-6233",
    "OBJECT_ID": "23094M",
    "EPOCH": "2025-11-11T01:24:37.569024",
    "MEAN_MOTION": 15.02537122,
    "ECCENTRICITY": 0.0001131,
    "INCLINATION": 43.0049,
    "RA_OF_ASC_NODE": 315.0366,
    "ARG_OF_PERICENTER": 266.9286,
    "MEAN_ANOMALY": 93.1427,
    "EPHEMERIS_TYPE": 0,
    "CLASSIFICATION_TYPE": "U",
    "NORAD_CAT_ID": 57229,
    "ELEMENT_SET_NO": 999,
    "REV_AT_EPOCH": 12927,
    "BSTAR": 0.0001344,
    "MEAN_MOTION_DOT": 1.612e-05,
    "MEAN_MOTION_DDOT": 0.0,
    "TLE_LINE1": "1 57229U 23094M   25315.05876816  .00001612  00000+0  13440-3 0  9994",
    "TLE_LINE2": "2 57229  43.0049 315.0366 0001131 266.9286  93.1427 15.02537122129271",
    "COMMENT": "Grouped by shell and plane from TLE"
  },
  {
    "OBJECT_NAME": "STARLINK-6250",
    "OBJECT_ID": "23094N",
    "EPOCH": "2025-11-11T07:29:57.315552",
    "MEAN_MOTION": 15.02541253,
    "ECCENTRICITY": 0.0001061,
    "INCLINATION": 43.0048,
    "RA_OF_ASC_NODE": 313.4995,
    "ARG_OF_PERICENTER": 283.3306,
    "MEAN_ANOMALY": 76.7418,
    "EPHEMERIS_TYPE": 0,
    "CLASSIFICATION_TYPE": "U",
    "NORAD_CAT_ID": 57230,
    "ELEMENT_SET_NO": 999,
    "REV_AT_EPOCH": 12931,
    "BSTAR": 0.00014209,
    "MEAN_MOTION_DOT": 1.716e-05,
    "MEAN_MOTION_DDOT": 0.0,
    "TLE_LINE1": "1 57230U 23094N   25315.31246893  .00001716  00000+0  14209-3 0  9990",
    "TLE_LINE2": "2 57230  43.0048 313.4995 0001061 283.3306  76.7418 15.02541253129312",
    "COMMENT": "Grouped by shell and plane from TLE"
  },
  {
    "OBJECT_NAME": "STARLINK-5840",
    "OBJECT_ID": "23094P",
    "EPOCH": "2025-11-11T06:56:24.270720",
    "MEAN_MOTION": 15.02547311,
    "ECCENTRICITY": 0.0001262,
    "INCLINATION": 43.0054,
    "RA_OF_ASC_NODE": 313.3222,
    "ARG_OF_PERICENTER": 274.3512,
    "MEAN_ANOMALY": 85.7186,
    "EPHEMERIS_TYPE": 0,
    "CLASSIFICATION_TYPE": "U",
    "NORAD_CAT_ID": 57231,
    "ELEMENT_SET_NO": 999,
    "REV_AT_EPOCH": 12931,
    "BSTAR": 7.2503e-05,
    "MEAN_MOTION_DOT": 7.76e-06,
    "MEAN_MOTION_DDOT": 0.0,
    "TLE_LINE1": "1 57231U 23094P   25315.28916980  .00000776  00000+0  72503-4 0  9995",
    "TLE_LINE2": "2 57231  43.0054 313.3222 0001262 274.3512  85.7186 15.02547311129317",
    "COMMENT": "Grouped by shell and plane from TLE"
  },
  {
    "OBJECT_NAME": "STARLINK-5872",
    "OBJECT_ID": "23094Q",
    "EPOCH": "2025-11-11T06:54:47.799936",
    "MEAN_MOTION": 15.02536189,
    "ECCENTRICITY": 9.37e-05,
    "INCLINATION": 43.0035,
    "RA_OF_ASC_NODE": 313.3097,
    "ARG_OF_PERICENTER": 268.5192,
    "MEAN_ANOMALY": 91.5543,
    "EPHEMERIS_TYPE": 0,
    "CLASSIFICATION_TYPE": "U",
    "NORAD_CAT_ID": 57232,
    "ELEMENT_SET_NO": 999,
    "REV_AT_EPOCH": 12997,
    "BSTAR": 0.00010813000000000001,
    "MEAN_MOTION_DOT": 1.257e-05,
    "MEAN_MOTION_DDOT": 0.0,
    "TLE_LINE1": "1 57232U 23094Q   25315.28805324  .00001257  00000+0  10813-3 0  9995",
    "TLE_LINE2": "2 57232  43.0035 313.3097 0000937 268.5192  91.5543 15.02536189129979",
    "COMMENT": "Grouped by shell and plane from TLE"
  },
  {
    "OBJECT_NAME": "STARLINK-5866",
    "OBJECT_ID": "23094R",
    "EPOCH": "2025-11-11T07:05:59.168544",
    "MEAN_MOTION": 15.0253935,
    "ECCENTRICITY": 0.0001141,
    "INCLINATION": 43.0051,
    "RA_OF_ASC_NODE": 313.3713,
    "ARG_OF_PERICENTER": 257.3573,
    "MEAN_ANOMALY": 102.7142,
    "EPHEMERIS_TYPE": 0,
    "CLASSIFICATION_TYPE": "U",
    "NORAD_CAT_ID": 57233,
    "ELEMENT_SET_NO": 999,
    "REV_AT_EPOCH": 12931,
    "BSTAR": 5.502700000000001e-05,
    "MEAN_MOTION_DOT": 5.4e-06,
    "MEAN_MOTION_DDOT": 0.0,
    "TLE_LINE1": "1 57233U 23094R   25315.29582371  .00000540  00000+0  55027-4 0  9992",
    "TLE_LINE2": "2 57233  43.0051 313.3713 0001141 257.3573 102.7142 15.02539350129311",
    "COMMENT": "Grouped by shell and plane from TLE"
  },
  {
    "OBJECT_NAME": "STARLINK-6368",
    "OBJECT_ID": "23094S",
    "EPOCH": "2025-11-11T00:28:41.087136",
    "MEAN_MOTION": 15.02536737,
    "ECCENTRICITY": 0.000115,
    "INCLINATION": 43.0053,
    "RA_OF_ASC_NODE": 314.7394,
    "ARG_OF_PERICENTER": 281.2219,
    "MEAN_ANOMALY": 78.8494,
    "EPHEMERIS_TYPE": 0,
    "CLASSIFICATION_TYPE": "U",
    "NORAD_CAT_ID": 57234,
    "ELEMENT_SET_NO": 999,
    "REV_AT_EPOCH": 12927,
    "BSTAR": 9.660800000000001e-05,
    "MEAN_MOTION_DOT": 1.102e-05,
    "MEAN_MOTION_DDOT": 0.0,
    "TLE_LINE1": "1 57234U 23094S   25315.01991999  .00001102  00000+0  96608-4 0  9998",
    "TLE_LINE2": "2 57234  43.0053 314.7394 0001150 281.2219  78.8494 15.02536737129271",
    "COMMENT": "Grouped by shell and plane from TLE"
  },
  {
    "OBJECT_NAME": "STARLINK-6360",
    "OBJECT_ID": "23094T",
    "EPOCH": "2025-11-11T07:09:11.253024",
    "MEAN_MOTION": 15.02530598,
    "ECCENTRICITY": 0.0001479,
    "INCLINATION": 43.0038,
    "RA_OF_ASC_NODE": 313.3893,
    "ARG_OF_PERICENTER": 279.8199,
    "MEAN_ANOMALY": 80.2477,
    "EPHEMERIS_TYPE": 0,
    "CLASSIFICATION_TYPE": "U",
    "NORAD_CAT_ID": 57235,
    "ELEMENT_SET_NO": 999,
    "REV_AT_EPOCH": 12931,
    "BSTAR": 1.3568e-05,
    "MEAN_MOTION_DOT": -2e-07,
    "MEAN_MOTION_DDOT": 0.0,
    "TLE_LINE1": "1 57235U 23094T   25315.29804691 -.00000020  00000+0  13568-4 0  9994",
    "TLE_LINE2": "2 57235  43.0038 313.3893 0001479 279.8199  80.2477 15.02530598129310",
    "COMMENT": "Grouped by shell and plane from TLE"
  },
  {
    "OBJECT_NAME": "STARLINK-6365",
    "OBJECT_ID": "23094V",
    "EPOCH": "2025-11-11T00:38:16.669248",
    "MEAN_MOTION": 15.02541729,
    "ECCENTRICITY": 0.00013,
    "INCLINATION": 43.0048,
    "RA_OF_ASC_NODE": 314.7917,
    "ARG_OF_PERICENTER": 266.502,
    "MEAN_ANOMALY": 93.5673,
    "EPHEMERIS_TYPE": 0,
    "CLASSIFICATION_TYPE": "U",
    "NORAD_CAT_ID": 57237,
    "ELEMENT_SET_NO": 999,
    "REV_AT_EPOCH": 12927,
    "BSTAR": 8.9557e-05,
    "MEAN_MOTION_DOT": 1.006e-05,
    "MEAN_MOTION_DDOT": 0.0,
    "TLE_LINE1": "1 57237U 23094V   25315.02658182  .00001006  00000+0  89557-4 0  9994",
    "TLE_LINE2": "2 57237  43.0048 314.7917 0001300 266.5020  93.5673 15.02541729129272",
    "COMMENT": "Grouped by shell and plane from TLE"
  },
  {
    "OBJECT_NAME": "STARLINK-6330",
    "OBJECT_ID": "23094X",
    "EPOCH": "2025-11-11T02:02:50.138592",
    "MEAN_MOTION": 15.02524854,
    "ECCENTRICITY": 0.0001504,
    "INCLINATION": 43.0048,
    "RA_OF_ASC_NODE": 314.3707,
    "ARG_OF_PERICENTER": 263.0271,
    "MEAN_ANOMALY": 97.0401,
    "EPHEMERIS_TYPE": 0,
    "CLASSIFICATION_TYPE": "U",
    "NORAD_CAT_ID": 57239,
    "ELEMENT_SET_NO": 999,
    "REV_AT_EPOCH": 12928,
    "BSTAR": 0.00024474,
    "MEAN_MOTION_DOT": 3.103e-05,
    "MEAN_MOTION_DDOT": 0.0,
    "TLE_LINE1": "1 57239U 23094X   25315.08530253  .00003103  00000+0  24474-3 0  9996",
    "TLE_LINE2": "2 57239  43.0048 314.3707 0001504 263.0271  97.0401 15.02524854129282",
    "COMMENT": "Grouped by shell and plane from TLE"
  },
  {
    "OBJECT_NAME": "STARLINK-5485",
    "OBJECT_ID": "23094AV",
    "EPOCH": "2025-11-11T00:52:39.431136",
    "MEAN_MOTION": 15.02542681,
    "ECCENTRICITY": 0.0001265,
    "INCLINATION": 43.0051,
    "RA_OF_ASC_NODE": 314.8686,
    "ARG_OF_PERICENTER": 262.3061,
    "MEAN_ANOMALY": 97.7638,
    "EPHEMERIS_TYPE": 0,
    "CLASSIFICATION_TYPE": "U",
    "NORAD_CAT_ID": 57261,
    "ELEMENT_SET_NO": 999,
    "REV_AT_EPOCH": 12927,
    "BSTAR": 0.00012213,
    "MEAN_MOTION_DOT": 1.447e-05,
    "MEAN_MOTION_DDOT": 0.0,
    "TLE_LINE1": "1 57261U 23094AV  25315.03656749  .00001447  00000+0  12213-3 0  9992",
    "TLE_LINE2": "2 57261  43.0051 314.8686 0001265 262.3061  97.7638 15.02542681129271",
    "COMMENT": "Grouped by shell and plane from TLE"
  }
]